start=new Date('2022-01-21T00:00:00.000Z').valueOf();
sats=[{"MEAN_MOTION_DOT":"0.00004039","GP_ID":"194259091","BSTAR":"0.00028988000000","PERIAPSIS":"546.195","INCLINATION":"53.0540","SITE":"AFETR","MEAN_ELEMENT_THEORY":"SGP4","TLE_LINE2":"2 45587  53.0540  12.1297 0001477  65.8345 294.2799 15.06398566 98020","CLASSIFICATION_TYPE":"U","TLE_LINE1":"1 45587U 20025BJ  22020.38929407  .00004039  00000-0  28988-3 0  9990","MEAN_MOTION":"15.06398566","COUNTRY_CODE":"US","SEMIMAJOR_AXIS":"6925.353","TIME_SYSTEM":"UTC","PERIOD":"95.592","CENTER_NAME":"EARTH","RCS_SIZE":"LARGE","ARG_OF_PERICENTER":"65.8345","LAUNCH_DATE":"2020-04-22","FILE":"3278533","REV_AT_EPOCH":"9802","RA_OF_ASC_NODE":"12.1297","OBJECT_TYPE":"PAYLOAD","EPHEMERIS_TYPE":"0","OBJECT_NAME":"STARLINK-1349","ELEMENT_SET_NO":"999","MEAN_MOTION_DDOT":"0.0000000000000","OBJECT_ID":"2020-025BJ","REF_FRAME":"TEME","MEAN_ANOMALY":"294.2799","APOAPSIS":"548.241","EPOCH":"2022-01-20T09:20:35.007648","DECAY_DATE":null,"ECCENTRICITY":"0.00014770","NORAD_CAT_ID":"45587"},{"MEAN_MOTION_DOT":"0.00003085","BSTAR":"0.00022591000000","GP_ID":"194267194","TLE_LINE2":"2 45588  53.0548  10.7495 0001742  64.7147 295.4022 15.06406321 97464","MEAN_ELEMENT_THEORY":"SGP4","CLASSIFICATION_TYPE":"U","SITE":"AFETR","INCLINATION":"53.0548","PERIAPSIS":"545.988","MEAN_MOTION":"15.06406321","TLE_LINE1":"1 45588U 20025BK  22020.69891159  .00003085  00000-0  22591-3 0  9991","SEMIMAJOR_AXIS":"6925.329","COUNTRY_CODE":"US","PERIOD":"95.592","TIME_SYSTEM":"UTC","LAUNCH_DATE":"2020-04-22","RCS_SIZE":"LARGE","ARG_OF_PERICENTER":"64.7147","CENTER_NAME":"EARTH","OBJECT_TYPE":"PAYLOAD","RA_OF_ASC_NODE":"10.7495","REV_AT_EPOCH":"9746","FILE":"3278640","OBJECT_NAME":"STARLINK-1360","EPHEMERIS_TYPE":"0","OBJECT_ID":"2020-025BK","MEAN_MOTION_DDOT":"0.0000000000000","ELEMENT_SET_NO":"999","MEAN_ANOMALY":"295.4022","REF_FRAME":"TEME","APOAPSIS":"548.401","NORAD_CAT_ID":"45588","ECCENTRICITY":"0.00017420","DECAY_DATE":null,"EPOCH":"2022-01-20T16:46:25.961376"},{"EPHEMERIS_TYPE":"0","OBJECT_NAME":"STARLINK-1364","REF_FRAME":"TEME","MEAN_ANOMALY":"282.1450","ELEMENT_SET_NO":"999","MEAN_MOTION_DDOT":"0.0000000000000","OBJECT_ID":"2020-025BL","EPOCH":"2022-01-20T08:43:25.044384","DECAY_DATE":null,"ECCENTRICITY":"0.00016870","NORAD_CAT_ID":"45589","APOAPSIS":"548.379","GP_ID":"194257591","BSTAR":"0.00012157000000","MEAN_MOTION_DOT":"0.00001530","TLE_LINE1":"1 45589U 20025BL  22020.36348431  .00001530  00000-0  12157-3 0  9996","MEAN_MOTION":"15.06400795","PERIAPSIS":"546.043","SITE":"AFETR","INCLINATION":"53.0558","TLE_LINE2":"2 45589  53.0558  12.2491 0001687  77.9728 282.1450 15.06400795 98017","CLASSIFICATION_TYPE":"U","MEAN_ELEMENT_THEORY":"SGP4","TIME_SYSTEM":"UTC","PERIOD":"95.592","COUNTRY_CODE":"US","SEMIMAJOR_AXIS":"6925.346","FILE":"3278533","REV_AT_EPOCH":"9801","OBJECT_TYPE":"PAYLOAD","RA_OF_ASC_NODE":"12.2491","CENTER_NAME":"EARTH","RCS_SIZE":"LARGE","ARG_OF_PERICENTER":"77.9728","LAUNCH_DATE":"2020-04-22"},{"MEAN_MOTION_DOT":"0.00003578","GP_ID":"194257837","BSTAR":"0.00025906000000","CLASSIFICATION_TYPE":"U","TLE_LINE2":"2 45590  53.0555  41.8843 0001301  71.9063 288.2068 15.06390564 97624","MEAN_ELEMENT_THEORY":"SGP4","PERIAPSIS":"546.341","INCLINATION":"53.0555","SITE":"AFETR","MEAN_MOTION":"15.06390564","TLE_LINE1":"1 45590U 20025BM  22020.44551654  .00003578  00000-0  25906-3 0  9990","SEMIMAJOR_AXIS":"6925.377","COUNTRY_CODE":"US","TIME_SYSTEM":"UTC","PERIOD":"95.593","ARG_OF_PERICENTER":"71.9063","RCS_SIZE":"LARGE","LAUNCH_DATE":"2020-04-22","CENTER_NAME":"EARTH","RA_OF_ASC_NODE":"41.8843","OBJECT_TYPE":"PAYLOAD","FILE":"3278533","REV_AT_EPOCH":"9762","OBJECT_NAME":"STARLINK-1365","EPHEMERIS_TYPE":"0","MEAN_MOTION_DDOT":"0.0000000000000","OBJECT_ID":"2020-025BM","ELEMENT_SET_NO":"999","REF_FRAME":"TEME","MEAN_ANOMALY":"288.2068","APOAPSIS":"548.143","ECCENTRICITY":"0.00013010","NORAD_CAT_ID":"45590","EPOCH":"2022-01-20T10:41:32.629056","DECAY_DATE":null},{"PERIOD":"95.591","TIME_SYSTEM":"UTC","SEMIMAJOR_AXIS":"6925.314","COUNTRY_CODE":"US","RA_OF_ASC_NODE":"2.2918","OBJECT_TYPE":"PAYLOAD","REV_AT_EPOCH":"9124","FILE":"3278533","LAUNCH_DATE":"2020-06-04","ARG_OF_PERICENTER":"69.3073","RCS_SIZE":"LARGE","CENTER_NAME":"EARTH","GP_ID":"194257597","BSTAR":"0.00043090000000","MEAN_MOTION_DOT":"0.00006144","MEAN_MOTION":"15.06411381","TLE_LINE1":"1 45658U 20035B   22020.35333950  .00006144  00000-0  43090-3 0  9999","MEAN_ELEMENT_THEORY":"SGP4","TLE_LINE2":"2 45658  53.0546   2.2918 0001565  69.3073 290.8083 15.06411381 91246","CLASSIFICATION_TYPE":"U","SITE":"AFETR","INCLINATION":"53.0546","PERIAPSIS":"546.095","NORAD_CAT_ID":"45658","ECCENTRICITY":"0.00015650","DECAY_DATE":null,"EPOCH":"2022-01-20T08:28:48.532800","APOAPSIS":"548.262","OBJECT_NAME":"STARLINK-1441","EPHEMERIS_TYPE":"0","MEAN_ANOMALY":"290.8083","REF_FRAME":"TEME","OBJECT_ID":"2020-035B","MEAN_MOTION_DDOT":"0.0000000000000","ELEMENT_SET_NO":"999"},{"OBJECT_ID":"2020-035C","MEAN_MOTION_DDOT":"0.0000000000000","ELEMENT_SET_NO":"999","MEAN_ANOMALY":"298.6547","REF_FRAME":"TEME","OBJECT_NAME":"STARLINK-1442","EPHEMERIS_TYPE":"0","APOAPSIS":"548.534","NORAD_CAT_ID":"45659","ECCENTRICITY":"0.00019120","DECAY_DATE":null,"EPOCH":"2022-01-20T10:08:18.962880","CLASSIFICATION_TYPE":"U","TLE_LINE2":"2 45659  53.0599   1.9655 0001912  61.4634 298.6547 15.06401319 91242","MEAN_ELEMENT_THEORY":"SGP4","SITE":"AFETR","INCLINATION":"53.0599","PERIAPSIS":"545.885","MEAN_MOTION":"15.06401319","TLE_LINE1":"1 45659U 20035C   22020.42244170  .00002316  00000-0  17432-3 0  9991","MEAN_MOTION_DOT":"0.00002316","BSTAR":"0.00017432000000","GP_ID":"194257843","LAUNCH_DATE":"2020-06-04","RCS_SIZE":"LARGE","ARG_OF_PERICENTER":"61.4634","CENTER_NAME":"EARTH","RA_OF_ASC_NODE":"1.9655","OBJECT_TYPE":"PAYLOAD","REV_AT_EPOCH":"9124","FILE":"3278533","SEMIMAJOR_AXIS":"6925.345","COUNTRY_CODE":"US","PERIOD":"95.592","TIME_SYSTEM":"UTC"},{"EPHEMERIS_TYPE":"0","OBJECT_NAME":"STARLINK-1443","ELEMENT_SET_NO":"999","MEAN_MOTION_DDOT":"0.0000000000000","OBJECT_ID":"2020-035D","REF_FRAME":"TEME","MEAN_ANOMALY":"299.2911","APOAPSIS":"548.394","EPOCH":"2022-01-20T10:20:17.709792","DECAY_DATE":null,"ECCENTRICITY":"0.00017390","NORAD_CAT_ID":"45660","MEAN_MOTION_DOT":"0.00002079","GP_ID":"194258598","BSTAR":"0.00015843000000","PERIAPSIS":"545.986","INCLINATION":"53.0547","SITE":"AFETR","MEAN_ELEMENT_THEORY":"SGP4","TLE_LINE2":"2 45660  53.0547   1.9541 0001739  60.8252 299.2911 15.06407711 91252","CLASSIFICATION_TYPE":"U","TLE_LINE1":"1 45660U 20035D   22020.43076053  .00002079  00000-0  15843-3 0  9997","MEAN_MOTION":"15.06407711","COUNTRY_CODE":"US","SEMIMAJOR_AXIS":"6925.325","TIME_SYSTEM":"UTC","PERIOD":"95.592","CENTER_NAME":"EARTH","ARG_OF_PERICENTER":"60.8252","RCS_SIZE":"LARGE","LAUNCH_DATE":"2020-06-04","FILE":"3278533","REV_AT_EPOCH":"9125","RA_OF_ASC_NODE":"1.9541","OBJECT_TYPE":"PAYLOAD"},{"OBJECT_ID":"2020-035E","MEAN_MOTION_DDOT":"0.0000000000000","ELEMENT_SET_NO":"999","MEAN_ANOMALY":"289.9128","REF_FRAME":"TEME","OBJECT_NAME":"STARLINK-1444","EPHEMERIS_TYPE":"0","APOAPSIS":"548.556","NORAD_CAT_ID":"45661","ECCENTRICITY":"0.00019100","DECAY_DATE":null,"EPOCH":"2022-01-20T09:11:18.629664","TLE_LINE2":"2 45661  53.0535   2.1586 0001910  70.2067 289.9128 15.06393439 91248","MEAN_ELEMENT_THEORY":"SGP4","CLASSIFICATION_TYPE":"U","SITE":"AFETR","INCLINATION":"53.0535","PERIAPSIS":"545.911","MEAN_MOTION":"15.06393439","TLE_LINE1":"1 45661U 20035E   22020.38285451  .00011967  00000-0  82105-3 0  9997","MEAN_MOTION_DOT":"0.00011967","BSTAR":"0.00082105000000","GP_ID":"194258849","LAUNCH_DATE":"2020-06-04","ARG_OF_PERICENTER":"70.2067","RCS_SIZE":"LARGE","CENTER_NAME":"EARTH","OBJECT_TYPE":"PAYLOAD","RA_OF_ASC_NODE":"2.1586","REV_AT_EPOCH":"9124","FILE":"3278533","SEMIMAJOR_AXIS":"6925.369","COUNTRY_CODE":"US","PERIOD":"95.593","TIME_SYSTEM":"UTC"},{"MEAN_MOTION_DOT":"0.00005145","BSTAR":"0.00036400000000","GP_ID":"194269874","PERIAPSIS":"546.136","INCLINATION":"53.0543","SITE":"AFETR","MEAN_ELEMENT_THEORY":"SGP4","TLE_LINE2":"2 45662  53.0543   0.9021 0001539  68.7950 291.3203 15.06403757 90928","CLASSIFICATION_TYPE":"U","TLE_LINE1":"1 45662U 20035F   22020.66297906  .00005145  00000-0  36400-3 0  9995","MEAN_MOTION":"15.06403757","COUNTRY_CODE":"US","SEMIMAJOR_AXIS":"6925.337","TIME_SYSTEM":"UTC","PERIOD":"95.592","CENTER_NAME":"EARTH","RCS_SIZE":"LARGE","ARG_OF_PERICENTER":"68.7950","LAUNCH_DATE":"2020-06-04","FILE":"3278766","REV_AT_EPOCH":"9092","OBJECT_TYPE":"PAYLOAD","RA_OF_ASC_NODE":"0.9021","EPHEMERIS_TYPE":"0","OBJECT_NAME":"STARLINK-1445","ELEMENT_SET_NO":"999","MEAN_MOTION_DDOT":"0.0000000000000","OBJECT_ID":"2020-035F","REF_FRAME":"TEME","MEAN_ANOMALY":"291.3203","APOAPSIS":"548.268","EPOCH":"2022-01-20T15:54:41.390784","DECAY_DATE":null,"ECCENTRICITY":"0.00015390","NORAD_CAT_ID":"45662"},{"APOAPSIS":"548.351","EPOCH":"2022-01-20T08:02:18.371904","DECAY_DATE":null,"ECCENTRICITY":"0.00016460","NORAD_CAT_ID":"45663","EPHEMERIS_TYPE":"0","OBJECT_NAME":"STARLINK-1446","ELEMENT_SET_NO":"999","MEAN_MOTION_DDOT":"0.0000000000000","OBJECT_ID":"2020-035G","REF_FRAME":"TEME","MEAN_ANOMALY":"294.4863","COUNTRY_CODE":"US","SEMIMAJOR_AXIS":"6925.346","TIME_SYSTEM":"UTC","PERIOD":"95.592","CENTER_NAME":"EARTH","RCS_SIZE":"LARGE","ARG_OF_PERICENTER":"65.6298","LAUNCH_DATE":"2020-06-04","FILE":"3278533","REV_AT_EPOCH":"9123","RA_OF_ASC_NODE":"2.3736","OBJECT_TYPE":"PAYLOAD","MEAN_MOTION_DOT":"0.00006566","BSTAR":"0.00045929000000","GP_ID":"194258344","PERIAPSIS":"546.071","SITE":"AFETR","INCLINATION":"53.0547","TLE_LINE2":"2 45663  53.0547   2.3736 0001646  65.6298 294.4863 15.06400874 91230","CLASSIFICATION_TYPE":"U","MEAN_ELEMENT_THEORY":"SGP4","TLE_LINE1":"1 45663U 20035G   22020.33493486  .00006566  00000-0  45929-3 0  9995","MEAN_MOTION":"15.06400874"}];
